CZ-8A R/B               
1 66004U 25231K   26190.62148448 -.00000046  00000+0  42065-4 0  9995
2 66004  50.0053 303.8718 0116507 302.9977  55.9785 14.30161155 38151
SZ-21 MODULE            
1 66515U 25246C   26190.62853715  .00038903  00000+0  21899-3 0  9991
2 66515  41.4700 167.3519 0006956 182.2034 177.8782 15.78399650 37282
SPACEMOBILE-006         
1 67232U 25309A   26189.16910173  .00000190  00000+0  24444-4 0  9994
2 67232  52.9947 235.5229 0010630 192.2291 167.8446 15.18644437 29787
SPACEMOBILE-008         
1 69589U 26139A   26190.27299870  .00000479  00000+0  43935-4 0  9997
2 69589  52.9939 162.2948 0004746  42.3763 317.7594 15.12796930  3321
SPACEMOBILE-009         
1 69590U 26139B   26189.94419122  .00000456  00000+0  42786-4 0  9993
2 69590  52.9929 163.7993 0004980  36.9056 323.2277 15.12689610  3272
SPACEMOBILE-010         
1 69591U 26139C   26190.60738347  .00000292  00000+0  33614-4 0  9990
2 69591  52.9935 160.8181 0004902  29.8087 330.3182 15.12521494  3387
